STARLINK-37794          
1 69310U 26119Q   26165.50003471 -.02337994  00000+0 -19518-1 0  9991
2 69310  97.2840 191.2059 0001729  71.2382  53.3195 15.73479242  3610
STARLINK-37795          
1 69311U 26119R   26165.50003471 -.02185446  00000+0 -31766-1 0  9994
2 69311  97.2844 191.1427 0001423 108.2425 219.7531 15.58967036  3611
STARLINK-37790          
1 69312U 26119S   26165.53716176 -.00420070  00000+0 -23336-2 0  9999
2 69312  97.2819 191.2574 0000883  70.9607 289.1757 15.80496091  3629
STARLINK-37676          
1 69313U 26119T   26165.47179147  .00215561  00000+0  10920-2 0  9994
2 69313  97.2821 191.1930 0001532  92.6983 267.4461 15.80947740  3610
STARLINK-37617          
1 69314U 26119U   26165.47095942 -.00536964  00000+0 -30367-2 0  9997
2 69314  97.2817 191.1936 0001182  88.2033 271.9371 15.80394969  3619
STARLINK-37627          
1 69315U 26119V   26165.34399458  .00066498  00000+0  34450-3 0  9999
2 69315  97.2821 191.0609 0001373 103.8401 256.3020 15.80864592  3595
STARLINK-37738          
1 69316U 26119W   26165.47286685  .00020629  00000+0  10834-3 0  9997
2 69316  97.2818 191.1913 0000523  87.5185 272.6144 15.80784798  3614
STARLINK-37799          
1 69317U 26119X   26165.47131469  .00183670  00000+0  93450-3 0  9998
2 69317  97.2820 191.1934 0001103  91.9107 268.2288 15.80934762  2368
STARLINK-37802          
1 69318U 26119Y   26165.46930375  .00147861  00000+0  75770-3 0  9998
2 69318  97.2822 191.1970 0001269  90.0121 270.1292 15.80872740  3613
STARLINK-37803          
1 69319U 26119Z   26165.50003471 -.02666809  00000+0 -23831-1 0  9993
2 69319  97.2838 191.2143 0001996  91.7903  50.3598 15.71769837  3560
GUOWANG TEST OBJECT A   
1 69320U 26120A   26158.46264223  .00009002  00000+0  24096-3 0  9996
2 69320  54.9967  71.5399 0009599 294.3963  65.6063 15.38803685  1198
GUOWANG TEST OBJECT B   
1 69321U 26120B   26165.21542075  .00009122  00000+0  24523-3 0  9990
2 69321  54.9983  41.1132 0009706 321.8388  38.1952 15.38651111  2235
GUOWANG TEST OBJECT C   
1 69322U 26120C   26158.91389784  .00016153  00000+0  41736-3 0  9993
2 69322  54.9968  69.4792 0009850 309.3319  50.6835 15.39284097  1266
GUOWANG TEST OBJECT D   
1 69323U 26120D   26164.95209719  .00004341  00000+0  12081-3 0  9991
2 69323  54.9984  42.2612 0010855 335.7492  24.3024 15.38973808  2192
QIANFAN-163             
1 69325U 26121A   26158.95635699  .00000032  00000+0  25988-4 0  9991
2 69325  89.0167 301.4498 0019200 214.2671 145.7248 13.60351284   905
QIANFAN-164             
1 69326U 26121B   26162.41240743  .00000112  00000+0  13228-3 0  9992
2 69326  89.0157 301.0998 0019383 205.3125 154.7084 13.60355109  1373
SZ-22 MODULE            
1 69328U 25272C   26164.78312604  .00021216  00000+0  25736-3 0  9993
2 69328  41.4809 342.8006 0006611  57.2068 302.9407 15.60088365  2796
STARLINK-37733          
1 69329U 26122A   26165.50003471  .00291347  00000+0  14824-2 0  9998
2 69329  97.2840 194.7853 0000588  56.2432 276.6851 15.80653358  2923
STARLINK-37772          
1 69330U 26122B   26165.50003471  .00135610  00000+0  69983-3 0  9997
2 69330  97.2838 194.7973 0001291  87.4747 275.2284 15.80751180  2873
STARLINK-37768          
1 69331U 26122C   26165.50003471  .00150176  00000+0  77456-3 0  9996
2 69331  97.2835 194.8009 0001023  95.2098 276.8918 15.80724855  2871
STARLINK-37833          
1 69332U 26122D   26165.50003471  .00169597  00000+0  87171-3 0  9999
2 69332  97.2835 194.8036 0001055  93.1936 281.7307 15.80749004  2875
STARLINK-37818          
1 69333U 26122E   26165.50003471 -.00053365  00000+0 -27923-3 0  9996
2 69333  97.2833 194.7983 0001258  99.0136 264.8807 15.80842195  2924
STARLINK-37868          
1 69334U 26122F   26165.50003471  .00116718  00000+0  60292-3 0  9993
2 69334  97.2835 194.8162 0000974 100.9551 305.1441 15.80781503  2922
STARLINK-37877          
1 69335U 26122G   26165.50003471  .00080334  00000+0  41674-3 0  9991
2 69335  97.2836 194.8161 0000927 108.7699 298.0425 15.80792831  2928
STARLINK-37791          
1 69336U 26122H   26165.50003471  .00001504  00000+0  86067-5 0  9991
2 69336  97.2825 194.8208 0000742  52.2987   3.4422 15.80777993  2924
STARLINK-37765          
1 69337U 26122J   26165.50003471  .00116165  00000+0  60026-3 0  9997
2 69337  97.2834 194.8214 0000763  94.9001 322.8825 15.80776020  2975
STARLINK-37788          
1 69338U 26122K   26165.50003471  .00160945  00000+0  82811-3 0  9999
2 69338  97.2834 194.8234 0001346 102.4428 319.3228 15.80748647  2921
STARLINK-37743          
1 69339U 26122L   26165.50003471  .00181282  00000+0  92950-3 0  9992
2 69339  97.2834 194.8176 0001583 102.3490 306.0971 15.80771329  2929
STARLINK-37780          
1 69340U 26122M   26165.50003471  .00182580  00000+0  93750-3 0  9995
2 69340  97.2836 194.8198 0001253  91.8875 322.1058 15.80736696  2978
