OBJECT_NAME,OBJECT_ID,EPOCH,MEAN_MOTION,ECCENTRICITY,INCLINATION,RA_OF_ASC_NODE,ARG_OF_PERICENTER,MEAN_ANOMALY,EPHEMERIS_TYPE,CLASSIFICATION_TYPE,NORAD_CAT_ID,ELEMENT_SET_NO,REV_AT_EPOCH,BSTAR,MEAN_MOTION_DOT,MEAN_MOTION_DDOT
STARLINK-37794,2026-119Q,2026-06-14T12:00:02.998944,15.73479242,.0001729,97.2840,191.2059,71.2382,53.3195,0,U,69310,999,361,-.19518E-1,-.2337994E-1,0
STARLINK-37795,2026-119R,2026-06-14T12:00:02.998944,15.58967036,.0001423,97.2844,191.1427,108.2425,219.7531,0,U,69311,999,361,-.31766E-1,-.2185446E-1,0
STARLINK-37790,2026-119S,2026-06-14T12:53:30.776064,15.80496091,.0000883,97.2819,191.2574,70.9607,289.1757,0,U,69312,999,362,-.23336E-2,-.42007E-2,0
STARLINK-37676,2026-119T,2026-06-14T11:19:22.783008,15.80947740,.0001532,97.2821,191.1930,92.6983,267.4461,0,U,69313,999,361,.1092E-2,.215561E-2,0
STARLINK-37617,2026-119U,2026-06-14T11:18:10.893888,15.80394969,.0001182,97.2817,191.1936,88.2033,271.9371,0,U,69314,999,361,-.30367E-2,-.536964E-2,0
STARLINK-37627,2026-119V,2026-06-14T08:15:21.131712,15.80864592,.0001373,97.2821,191.0609,103.8401,256.3020,0,U,69315,999,359,.3445E-3,.66498E-3,0
STARLINK-37738,2026-119W,2026-06-14T11:20:55.695840,15.80784798,.0000523,97.2818,191.1913,87.5185,272.6144,0,U,69316,999,361,.10834E-3,.20629E-3,0
STARLINK-37799,2026-119X,2026-06-14T11:18:41.589216,15.80934762,.0001103,97.2820,191.1934,91.9107,268.2288,0,U,69317,999,236,.9345E-3,.18367E-2,0
STARLINK-37802,2026-119Y,2026-06-14T11:15:47.844000,15.80872740,.0001269,97.2822,191.1970,90.0121,270.1292,0,U,69318,999,361,.7577E-3,.147861E-2,0
STARLINK-37803,2026-119Z,2026-06-14T12:00:02.998944,15.71769837,.0001996,97.2838,191.2143,91.7903,50.3598,0,U,69319,999,356,-.23831E-1,-.2666809E-1,0
GUOWANG TEST OBJECT A,2026-120A,2026-06-07T11:06:12.288672,15.38803685,.00095994,54.9967,71.5399,294.3963,65.6063,0,U,69320,999,119,.24095813E-3,.9002E-4,0
GUOWANG TEST OBJECT B,2026-120B,2026-06-14T05:10:12.352800,15.38651111,.00097065,54.9983,41.1132,321.8388,38.1952,0,U,69321,999,223,.2452347E-3,.9122E-4,0
GUOWANG TEST OBJECT C,2026-120C,2026-06-07T21:56:00.773376,15.39284097,.00098504,54.9968,69.4792,309.3319,50.6835,0,U,69322,999,126,.41735581E-3,.16153E-3,0
GUOWANG TEST OBJECT D,2026-120D,2026-06-13T22:51:01.197216,15.38973808,.0010855,54.9984,42.2612,335.7492,24.3024,0,U,69323,999,219,.12081E-3,.4341E-4,0
QIANFAN-163,2026-121A,2026-06-07T22:57:09.243936,13.60351284,.00192,89.0167,301.4498,214.2671,145.7248,0,U,69325,999,90,.25988E-4,.32E-6,0
QIANFAN-164,2026-121B,2026-06-11T09:53:52.001952,13.60355109,.0019383,89.0157,301.0998,205.3125,154.7084,0,U,69326,999,137,.13228E-3,.112E-5,0
SZ-22 MODULE,2025-272C,2026-06-13T18:47:42.089856,15.60088365,.00066118,41.4809,342.8006,57.2068,302.9407,0,U,69328,999,279,.25736494E-3,.21216E-3,0
STARLINK-37733,2026-122A,2026-06-14T12:00:02.998944,15.80653358,.0000588,97.2840,194.7853,56.2432,276.6851,0,U,69329,999,292,.14824E-2,.291347E-2,0
STARLINK-37772,2026-122B,2026-06-14T12:00:02.998944,15.80751180,.0001291,97.2838,194.7973,87.4747,275.2284,0,U,69330,999,287,.69983E-3,.13561E-2,0
STARLINK-37768,2026-122C,2026-06-14T12:00:02.998944,15.80724855,.0001023,97.2835,194.8009,95.2098,276.8918,0,U,69331,999,287,.77456E-3,.150176E-2,0
STARLINK-37833,2026-122D,2026-06-14T12:00:02.998944,15.80749004,.0001055,97.2835,194.8036,93.1936,281.7307,0,U,69332,999,287,.87171E-3,.169597E-2,0
STARLINK-37818,2026-122E,2026-06-14T12:00:02.998944,15.80842195,.0001258,97.2833,194.7983,99.0136,264.8807,0,U,69333,999,292,-.27923E-3,-.53365E-3,0
STARLINK-37868,2026-122F,2026-06-14T12:00:02.998944,15.80781503,.0000974,97.2835,194.8162,100.9551,305.1441,0,U,69334,999,292,.60292E-3,.116718E-2,0
STARLINK-37877,2026-122G,2026-06-14T12:00:02.998944,15.80792831,.0000927,97.2836,194.8161,108.7699,298.0425,0,U,69335,999,292,.41674E-3,.80334E-3,0
STARLINK-37791,2026-122H,2026-06-14T12:00:02.998944,15.80777993,.0000742,97.2825,194.8208,52.2987,3.4422,0,U,69336,999,292,.86067E-5,.1504E-4,0
STARLINK-37765,2026-122J,2026-06-14T12:00:02.998944,15.80776020,.0000763,97.2834,194.8214,94.9001,322.8825,0,U,69337,999,297,.60026E-3,.116165E-2,0
STARLINK-37788,2026-122K,2026-06-14T12:00:02.998944,15.80748647,.0001346,97.2834,194.8234,102.4428,319.3228,0,U,69338,999,292,.82811E-3,.160945E-2,0
STARLINK-37743,2026-122L,2026-06-14T12:00:02.998944,15.80771329,.0001583,97.2834,194.8176,102.3490,306.0971,0,U,69339,999,292,.9295E-3,.181282E-2,0
STARLINK-37780,2026-122M,2026-06-14T12:00:02.998944,15.80736696,.0001253,97.2836,194.8198,91.8875,322.1058,0,U,69340,999,297,.9375E-3,.18258E-2,0
